<?xml version="1.0" encoding="UTF-8"?>
<ndm xmlns:xsi="http://www.w3.org/2001/XMLSchema-instance" xsi:noNamespaceSchemaLocation="https://sanaregistry.org/r/ndmxml_unqualified/ndmxml-2.0.0-master-2.0.xsd">
<omm id="CCSDS_OMM_VERS" version="2.0">
<header><CREATION_DATE/><ORIGINATOR/></header><body><segment><metadata><OBJECT_NAME>KUIPER-00053</OBJECT_NAME><OBJECT_ID>2025-134P</OBJECT_ID><CENTER_NAME>EARTH</CENTER_NAME><REF_FRAME>TEME</REF_FRAME><TIME_SYSTEM>UTC</TIME_SYSTEM><MEAN_ELEMENT_THEORY>SGP4</MEAN_ELEMENT_THEORY></metadata><data><meanElements><EPOCH>2025-08-07T22:06:02.700576</EPOCH><MEAN_MOTION>15.36818452</MEAN_MOTION><ECCENTRICITY>.0001865</ECCENTRICITY><INCLINATION>51.8776</INCLINATION><RA_OF_ASC_NODE>111.4626</RA_OF_ASC_NODE><ARG_OF_PERICENTER>248.8534</ARG_OF_PERICENTER><MEAN_ANOMALY>111.2253</MEAN_ANOMALY></meanElements><tleParameters><EPHEMERIS_TYPE>0</EPHEMERIS_TYPE><CLASSIFICATION_TYPE>U</CLASSIFICATION_TYPE><NORAD_CAT_ID>64513</NORAD_CAT_ID><ELEMENT_SET_NO>999</ELEMENT_SET_NO><REV_AT_EPOCH>777</REV_AT_EPOCH><BSTAR>.8989E-3</BSTAR><MEAN_MOTION_DOT>.32603E-3</MEAN_MOTION_DOT><MEAN_MOTION_DDOT>0</MEAN_MOTION_DDOT></tleParameters></data></segment></body></omm>
<omm id="CCSDS_OMM_VERS" version="2.0">
<header><CREATION_DATE/><ORIGINATOR/></header><body><segment><metadata><OBJECT_NAME>KUIPER-00054</OBJECT_NAME><OBJECT_ID>2025-134Q</OBJECT_ID><CENTER_NAME>EARTH</CENTER_NAME><REF_FRAME>TEME</REF_FRAME><TIME_SYSTEM>UTC</TIME_SYSTEM><MEAN_ELEMENT_THEORY>SGP4</MEAN_ELEMENT_THEORY></metadata><data><meanElements><EPOCH>2025-08-07T22:14:46.635360</EPOCH><MEAN_MOTION>15.36601344</MEAN_MOTION><ECCENTRICITY>.0002757</ECCENTRICITY><INCLINATION>51.8762</INCLINATION><RA_OF_ASC_NODE>111.5006</RA_OF_ASC_NODE><ARG_OF_PERICENTER>255.9244</ARG_OF_PERICENTER><MEAN_ANOMALY>104.1436</MEAN_ANOMALY></meanElements><tleParameters><EPHEMERIS_TYPE>0</EPHEMERIS_TYPE><CLASSIFICATION_TYPE>U</CLASSIFICATION_TYPE><NORAD_CAT_ID>64514</NORAD_CAT_ID><ELEMENT_SET_NO>999</ELEMENT_SET_NO><REV_AT_EPOCH>817</REV_AT_EPOCH><BSTAR>.89207E-3</BSTAR><MEAN_MOTION_DOT>.32124E-3</MEAN_MOTION_DOT><MEAN_MOTION_DDOT>0</MEAN_MOTION_DDOT></tleParameters></data></segment></body></omm>
<omm id="CCSDS_OMM_VERS" version="2.0">
<header><CREATION_DATE/><ORIGINATOR/></header><body><segment><metadata><OBJECT_NAME>KUIPER-00055</OBJECT_NAME><OBJECT_ID>2025-134R</OBJECT_ID><CENTER_NAME>EARTH</CENTER_NAME><REF_FRAME>TEME</REF_FRAME><TIME_SYSTEM>UTC</TIME_SYSTEM><MEAN_ELEMENT_THEORY>SGP4</MEAN_ELEMENT_THEORY></metadata><data><meanElements><EPOCH>2025-08-07T23:20:53.678400</EPOCH><MEAN_MOTION>15.37298247</MEAN_MOTION><ECCENTRICITY>.0000673</ECCENTRICITY><INCLINATION>51.8781</INCLINATION><RA_OF_ASC_NODE>111.0661</RA_OF_ASC_NODE><ARG_OF_PERICENTER>202.0002</ARG_OF_PERICENTER><MEAN_ANOMALY>158.0956</MEAN_ANOMALY></meanElements><tleParameters><EPHEMERIS_TYPE>0</EPHEMERIS_TYPE><CLASSIFICATION_TYPE>U</CLASSIFICATION_TYPE><NORAD_CAT_ID>64515</NORAD_CAT_ID><ELEMENT_SET_NO>999</ELEMENT_SET_NO><REV_AT_EPOCH>809</REV_AT_EPOCH><BSTAR>.4718E-3</BSTAR><MEAN_MOTION_DOT>.17161E-3</MEAN_MOTION_DOT><MEAN_MOTION_DDOT>0</MEAN_MOTION_DDOT></tleParameters></data></segment></body></omm>
<omm id="CCSDS_OMM_VERS" version="2.0">
<header><CREATION_DATE/><ORIGINATOR/></header><body><segment><metadata><OBJECT_NAME>KUIPER-00056</OBJECT_NAME><OBJECT_ID>2025-134S</OBJECT_ID><CENTER_NAME>EARTH</CENTER_NAME><REF_FRAME>TEME</REF_FRAME><TIME_SYSTEM>UTC</TIME_SYSTEM><MEAN_ELEMENT_THEORY>SGP4</MEAN_ELEMENT_THEORY></metadata><data><meanElements><EPOCH>2025-08-07T22:24:26.398368</EPOCH><MEAN_MOTION>15.36366393</MEAN_MOTION><ECCENTRICITY>.0003043</ECCENTRICITY><INCLINATION>51.8741</INCLINATION><RA_OF_ASC_NODE>111.5393</RA_OF_ASC_NODE><ARG_OF_PERICENTER>258.3385</ARG_OF_PERICENTER><MEAN_ANOMALY>101.7260</MEAN_ANOMALY></meanElements><tleParameters><EPHEMERIS_TYPE>0</EPHEMERIS_TYPE><CLASSIFICATION_TYPE>U</CLASSIFICATION_TYPE><NORAD_CAT_ID>64516</NORAD_CAT_ID><ELEMENT_SET_NO>999</ELEMENT_SET_NO><REV_AT_EPOCH>777</REV_AT_EPOCH><BSTAR>.80846E-3</BSTAR><MEAN_MOTION_DOT>.28844E-3</MEAN_MOTION_DOT><MEAN_MOTION_DDOT>0</MEAN_MOTION_DDOT></tleParameters></data></segment></body></omm>
<omm id="CCSDS_OMM_VERS" version="2.0">
<header><CREATION_DATE/><ORIGINATOR/></header><body><segment><metadata><OBJECT_NAME>KUIPER-00057</OBJECT_NAME><OBJECT_ID>2025-134T</OBJECT_ID><CENTER_NAME>EARTH</CENTER_NAME><REF_FRAME>TEME</REF_FRAME><TIME_SYSTEM>UTC</TIME_SYSTEM><MEAN_ELEMENT_THEORY>SGP4</MEAN_ELEMENT_THEORY></metadata><data><meanElements><EPOCH>2025-08-07T23:03:10.339776</EPOCH><MEAN_MOTION>15.35041952</MEAN_MOTION><ECCENTRICITY>.0006067</ECCENTRICITY><INCLINATION>51.8727</INCLINATION><RA_OF_ASC_NODE>111.6988</RA_OF_ASC_NODE><ARG_OF_PERICENTER>270.7291</ARG_OF_PERICENTER><MEAN_ANOMALY>89.3000</MEAN_ANOMALY></meanElements><tleParameters><EPHEMERIS_TYPE>0</EPHEMERIS_TYPE><CLASSIFICATION_TYPE>U</CLASSIFICATION_TYPE><NORAD_CAT_ID>64517</NORAD_CAT_ID><ELEMENT_SET_NO>999</ELEMENT_SET_NO><REV_AT_EPOCH>788</REV_AT_EPOCH><BSTAR>.75164E-3</BSTAR><MEAN_MOTION_DOT>.25664E-3</MEAN_MOTION_DOT><MEAN_MOTION_DDOT>0</MEAN_MOTION_DDOT></tleParameters></data></segment></body></omm>
<omm id="CCSDS_OMM_VERS" version="2.0">
<header><CREATION_DATE/><ORIGINATOR/></header><body><segment><metadata><OBJECT_NAME>KUIPER-00058</OBJECT_NAME><OBJECT_ID>2025-134U</OBJECT_ID><CENTER_NAME>EARTH</CENTER_NAME><REF_FRAME>TEME</REF_FRAME><TIME_SYSTEM>UTC</TIME_SYSTEM><MEAN_ELEMENT_THEORY>SGP4</MEAN_ELEMENT_THEORY></metadata><data><meanElements><EPOCH>2025-08-07T22:38:37.515264</EPOCH><MEAN_MOTION>15.36109312</MEAN_MOTION><ECCENTRICITY>.00047851</ECCENTRICITY><INCLINATION>51.8733</INCLINATION><RA_OF_ASC_NODE>111.5965</RA_OF_ASC_NODE><ARG_OF_PERICENTER>271.5442</ARG_OF_PERICENTER><MEAN_ANOMALY>88.4996</MEAN_ANOMALY></meanElements><tleParameters><EPHEMERIS_TYPE>0</EPHEMERIS_TYPE><CLASSIFICATION_TYPE>U</CLASSIFICATION_TYPE><NORAD_CAT_ID>64518</NORAD_CAT_ID><ELEMENT_SET_NO>999</ELEMENT_SET_NO><REV_AT_EPOCH>823</REV_AT_EPOCH><BSTAR>.1082504E-2</BSTAR><MEAN_MOTION_DOT>.38488E-3</MEAN_MOTION_DOT><MEAN_MOTION_DDOT>0</MEAN_MOTION_DDOT></tleParameters></data></segment></body></omm>
<omm id="CCSDS_OMM_VERS" version="2.0">
<header><CREATION_DATE/><ORIGINATOR/></header><body><segment><metadata><OBJECT_NAME>KUIPER-00059</OBJECT_NAME><OBJECT_ID>2025-134V</OBJECT_ID><CENTER_NAME>EARTH</CENTER_NAME><REF_FRAME>TEME</REF_FRAME><TIME_SYSTEM>UTC</TIME_SYSTEM><MEAN_ELEMENT_THEORY>SGP4</MEAN_ELEMENT_THEORY></metadata><data><meanElements><EPOCH>2025-08-08T02:31:34.606560</EPOCH><MEAN_MOTION>15.37191644</MEAN_MOTION><ECCENTRICITY>.0001366</ECCENTRICITY><INCLINATION>51.8772</INCLINATION><RA_OF_ASC_NODE>110.4514</RA_OF_ASC_NODE><ARG_OF_PERICENTER>213.0746</ARG_OF_PERICENTER><MEAN_ANOMALY>147.0155</MEAN_ANOMALY></meanElements><tleParameters><EPHEMERIS_TYPE>0</EPHEMERIS_TYPE><CLASSIFICATION_TYPE>U</CLASSIFICATION_TYPE><NORAD_CAT_ID>64519</NORAD_CAT_ID><ELEMENT_SET_NO>999</ELEMENT_SET_NO><REV_AT_EPOCH>826</REV_AT_EPOCH><BSTAR>.98977E-3</BSTAR><MEAN_MOTION_DOT>.36396E-3</MEAN_MOTION_DOT><MEAN_MOTION_DDOT>0</MEAN_MOTION_DDOT></tleParameters></data></segment></body></omm>
<omm id="CCSDS_OMM_VERS" version="2.0">
<header><CREATION_DATE/><ORIGINATOR/></header><body><segment><metadata><OBJECT_NAME>KUIPER-00060</OBJECT_NAME><OBJECT_ID>2025-134W</OBJECT_ID><CENTER_NAME>EARTH</CENTER_NAME><REF_FRAME>TEME</REF_FRAME><TIME_SYSTEM>UTC</TIME_SYSTEM><MEAN_ELEMENT_THEORY>SGP4</MEAN_ELEMENT_THEORY></metadata><data><meanElements><EPOCH>2025-08-07T23:33:14.497056</EPOCH><MEAN_MOTION>15.37039034</MEAN_MOTION><ECCENTRICITY>.0002286</ECCENTRICITY><INCLINATION>51.8780</INCLINATION><RA_OF_ASC_NODE>111.1217</RA_OF_ASC_NODE><ARG_OF_PERICENTER>224.6032</ARG_OF_PERICENTER><MEAN_ANOMALY>135.4771</MEAN_ANOMALY></meanElements><tleParameters><EPHEMERIS_TYPE>0</EPHEMERIS_TYPE><CLASSIFICATION_TYPE>U</CLASSIFICATION_TYPE><NORAD_CAT_ID>64520</NORAD_CAT_ID><ELEMENT_SET_NO>999</ELEMENT_SET_NO><REV_AT_EPOCH>778</REV_AT_EPOCH><BSTAR>.11496E-2</BSTAR><MEAN_MOTION_DOT>.4216E-3</MEAN_MOTION_DOT><MEAN_MOTION_DDOT>0</MEAN_MOTION_DDOT></tleParameters></data></segment></body></omm>

</ndm>
