KUIPER-00053            
1 64513U 25134P   25219.92086459  .00032603  00000+0  89890-3 0  9996
2 64513  51.8776 111.4626 0001865 248.8534 111.2253 15.36818452  7779
KUIPER-00054            
1 64514U 25134Q   25219.92692865  .00032124  00000+0  89207-3 0  9991
2 64514  51.8762 111.5006 0002757 255.9244 104.1436 15.36601344  8175
KUIPER-00055            
1 64515U 25134R   25219.97284350  .00017161  00000+0  47180-3 0  9991
2 64515  51.8781 111.0661 0000673 202.0002 158.0956 15.37298247  8090
KUIPER-00056            
1 64516U 25134S   25219.93363887  .00028844  00000+0  80846-3 0  9997
2 64516  51.8741 111.5393 0003043 258.3385 101.7260 15.36366393  7770
KUIPER-00057            
1 64517U 25134T   25219.96053634  .00025664  00000+0  75164-3 0  9991
2 64517  51.8727 111.6988 0006067 270.7291  89.3000 15.35041952  7884
KUIPER-00058            
1 64518U 25134U   25219.94348976  .00038488  00000+0  10825-2 0  9996
2 64518  51.8733 111.5965 0004785 271.5442  88.4996 15.36109312  8238
KUIPER-00059            
1 64519U 25134V   25220.10526165  .00036396  00000+0  98977-3 0  9996
2 64519  51.8772 110.4514 0001366 213.0746 147.0155 15.37191644  8262
KUIPER-00060            
1 64520U 25134W   25219.98141779  .00042160  00000+0  11496-2 0  9992
2 64520  51.8780 111.1217 0002286 224.6032 135.4771 15.37039034  7784
